[{"OBJECT_NAME":"PERSEUS-M2","OBJECT_ID":"2014-033AD","EPOCH":"2026-03-09T23:04:40.733184","MEAN_MOTION":14.95162748,"ECCENTRICITY":0.00103419,"INCLINATION":97.987,"RA_OF_ASC_NODE":17.5706,"ARG_OF_PERICENTER":270.5936,"MEAN_ANOMALY":89.4099,"EPHEMERIS_TYPE":0,"CLASSIFICATION_TYPE":"U","NORAD_CAT_ID":40037,"ELEMENT_SET_NO":999,"REV_AT_EPOCH":63595,"BSTAR":0.00023993519,"MEAN_MOTION_DOT":2.576e-5,"MEAN_MOTION_DDOT":0},{"OBJECT_NAME":"SL-8 R\/B","OBJECT_ID":"1971-119B","EPOCH":"2026-03-09T17:26:54.866688","MEAN_MOTION":14.37860327,"ECCENTRICITY":0.05486467,"INCLINATION":73.8873,"RA_OF_ASC_NODE":175.649,"ARG_OF_PERICENTER":142.2751,"MEAN_ANOMALY":221.8237,"EPHEMERIS_TYPE":0,"CLASSIFICATION_TYPE":"U","NORAD_CAT_ID":5730,"ELEMENT_SET_NO":999,"REV_AT_EPOCH":65549,"BSTAR":0.00068082483,"MEAN_MOTION_DOT":0.00013069,"MEAN_MOTION_DDOT":0}]
